{
  "type": "FeatureCollection",
  "features": [
    {
      "properties": {
        "name": "Path",
        "stroke": "#FF1493"
      },
      "geometry": {
        "type": "LineString",
        "coordinates": [
          [
            60.26860624551774,
            56.51194396126074
          ],
          [
            60.269558429718025,
            56.51190844258646
          ],
          [
            60.270210206508644,
            56.51184924472201
          ],
          [
            60.270698368549354,
            56.511775247261426
          ],
          [
            60.27134478092194,
            56.511677570392294
          ],
          [
            60.27218699455261,
            56.511514775051076
          ],
          [
            60.272889733314514,
            56.511381578342785
          ],
          [
            60.274410545825965,
            56.51112850330762
          ],
          [
            60.27473777532578,
            56.511042664607885
          ],
          [
            60.27479141950608,
            56.51099086529847
          ],
          [
            60.274568796157844,
            56.510822147057084
          ],
          [
            60.27407795190812,
            56.51046694830493
          ],
          [
            60.27327328920365,
            56.50985718268619
          ],
          [
            60.2724900841713,
            56.509204485803934
          ],
          [
            60.271663963794715,
            56.50841413031907
          ],
          [
            60.27112215757371,
            56.507875376686975
          ],
          [
            60.270625948905945,
            56.507392860066986
          ],
          [
            60.26990175247193,
            56.50693697982709
          ],
          [
            60.26828974485398,
            56.506213184679375
          ],
          [
            60.26736706495286,
            56.50578837413955
          ],
          [
            60.26606887578965,
            56.505203696797736
          ],
          [
            60.26513278484345,
            56.504783315618354
          ],
          [
            60.264049172401435,
            56.504241549900726
          ],
          [
            60.26360392570496,
            56.50395438132671
          ],
          [
            60.26216626167298,
            56.502796803475654
          ],
          [
            60.26128602373077,
            56.50203744116732
          ],
          [
            60.26026457548142,
            56.50109737964432
          ],
          [
            60.25983005762101,
            56.500731727104274
          ],
          [
            60.25925606489182,
            56.50036903183054
          ],
          [
            60.257821083068855,
            56.49983904637648
          ],
          [
            60.25645852088929,
            56.49947782299579
          ],
          [
            60.25443077087403,
            56.499086987266054
          ],
          [
            60.25347590446473,
            56.49897447320324
          ],
          [
            60.247414112091064,
            56.49788484606268
          ],
          [
            60.241867303848274,
            56.49686625325166
          ],
          [
            60.23889541625977,
            56.496380635421325
          ],
          [
            60.235344171524055,
            56.50216026862699
          ],
          [
            60.23297309875489,
            56.50171616821861
          ],
          [
            60.23917436394049,
            56.491204276004645
          ],
          [
            60.241695640414484,
            56.49169588304735
          ],
          [
            60.23892223783569,
            56.496318452780805
          ],
          [
            60.24165004491807,
            56.49678038225859
          ],
          [
            60.24743020534516,
            56.49781970431798
          ],
          [
            60.25032430887223,
            56.49833787419229
          ],
          [
            60.25282144546509,
            56.49878645553755
          ],
          [
            60.25375753641129,
            56.498944864183876
          ],
          [
            60.25432080030442,
            56.49903517162069
          ],
          [
            60.25612324476243,
            56.49937123183259
          ],
          [
            60.25749653577805,
            56.49970284780096
          ],
          [
            60.25842726230622,
            56.50000633308791
          ],
          [
            60.25922656059266,
            56.50032461992599
          ],
          [
            60.259789824485786,
            56.500659188327035
          ],
          [
            60.26040136814118,
            56.50114623174096
          ],
          [
            60.2611255645752,
            56.50182867414732
          ],
          [
            60.261844396591194,
            56.50247261613209
          ],
          [
            60.26254981756211,
            56.50306769762341
          ],
          [
            60.26373267173768,
            56.504003229742814
          ],
          [
            60.26421010494233,
            56.5042829967318
          ],
          [
            60.26536613702775,
            56.50483956407442
          ],
          [
            60.26598304510117,
            56.505119324892625
          ],
          [
            60.26646316051484,
            56.50533839541504
          ],
          [
            60.26707738637925,
            56.50561815255266
          ],
          [
            60.26786863803864,
            56.505977837267984
          ],
          [
            60.26875913143159,
            56.50638784407803
          ],
          [
            60.26934385299683,
            56.50664983166742
          ],
          [
            60.270025134086616,
            56.50695918191379
          ],
          [
            60.27053743600845,
            56.50729369178001
          ],
          [
            60.27137964963914,
            56.50806926967271
          ],
          [
            60.27232378721238,
            56.5089987581535
          ],
          [
            60.2731740474701,
            56.509737300427844
          ],
          [
            60.27384459972382,
            56.51024346738426
          ],
          [
            60.27436494827271,
            56.5106356681272
          ],
          [
            60.27485311031342,
            56.51099530524204
          ],
          [
            60.274767279624946,
            56.511069304225146
          ],
          [
            60.27448028326035,
            56.511149222964654
          ],
          [
            60.272908508777626,
            56.51140969768685
          ],
          [
            60.27207702398301,
            56.51156657364459
          ],
          [
            60.271151661872864,
            56.51174564823676
          ],
          [
            60.270440876483924,
            56.51184332493049
          ],
          [
            60.26964962482453,
            56.511932121706344
          ],
          [
            60.269086360931404,
            56.51195728075501
          ]
        ]
      },
      "type": "Feature"
    }
  ]
}