{
  "type": "FeatureCollection",
  "features": [
    {
      "type": "Feature",
      "properties": {
        "name": "Path",
        "pathType": "drawn",
        "stroke": "#DC143C"
      },
      "geometry": {
        "type": "LineString",
        "coordinates": [
          [
            60.26895761489869,
            56.51195876069856
          ],
          [
            60.26998758316041,
            56.51189956291268
          ],
          [
            60.274761915206916,
            56.5110589443762
          ],
          [
            60.274783372879035,
            56.51091686616224
          ],
          [
            60.27246594429017,
            56.509200045650594
          ],
          [
            60.271307229995735,
            56.50801006581276
          ],
          [
            60.27073860168458,
            56.507471306438575
          ],
          [
            60.26973009109498,
            56.506831889773544
          ],
          [
            60.264827013015754,
            56.504629372048726
          ],
          [
            60.26388287544251,
            56.504143853619645
          ],
          [
            60.2602243423462,
            56.50111810478393
          ],
          [
            60.25897979736329,
            56.500194344705896
          ],
          [
            60.25636196136475,
            56.4994126839872
          ],
          [
            60.25340080261231,
            56.4989389423772
          ],
          [
            60.238852500915534,
            56.496333257739124
          ],
          [
            60.235333442687995,
            56.50214842601692
          ],
          [
            60.23299455642701,
            56.50171024684472
          ],
          [
            60.23919582366944,
            56.491239811758454
          ],
          [
            60.22908926010132,
            56.4895221001896
          ],
          [
            60.22850990295411,
            56.48922593516181
          ],
          [
            60.2282738685608,
            56.488811300238794
          ],
          [
            60.22853136062623,
            56.48839666078422
          ],
          [
            60.2292823791504,
            56.48706978407725
          ],
          [
            60.22994756698609,
            56.484404043298476
          ],
          [
            60.2301836013794,
            56.4838471760224
          ],
          [
            60.23267269134522,
            56.482200222850345
          ],
          [
            60.2331018447876,
            56.48165517224602
          ],
          [
            60.23288726806641,
            56.47785144901799
          ],
          [
            60.233359336853034,
            56.4770219260316
          ],
          [
            60.234067440032966,
            56.475990922194576
          ],
          [
            60.23419618606568,
            56.47305181503167
          ],
          [
            60.23378849029542,
            56.47217477929584
          ],
          [
            60.2317500114441,
            56.4708591877009
          ],
          [
            60.22818803787232,
            56.46918796507206
          ],
          [
            60.225613117218025,
            56.46690028575514
          ],
          [
            60.22333860397339,
            56.464517633826866
          ],
          [
            60.22147178649903,
            56.463391452776584
          ],
          [
            60.21906852722169,
            56.46252604885633
          ],
          [
            60.21666526794434,
            56.46193329506569
          ],
          [
            60.214605331420906,
            56.46083074840726
          ],
          [
            60.21306037902833,
            56.45902866775618
          ],
          [
            60.20949840545655,
            56.45784304174986
          ],
          [
            60.20572185516358,
            56.45739249416369
          ],
          [
            60.199155807495124,
            56.45030159413028
          ],
          [
            60.19679546356202,
            56.45095382247829
          ],
          [
            60.195894241333015,
            56.45001698188778
          ],
          [
            60.19542217254639,
            56.44975608545924
          ],
          [
            60.192450284957886,
            56.448706552182536
          ],
          [
            60.191431045532234,
            56.44790604121237
          ],
          [
            60.19026160240174,
            56.447668849538005
          ],
          [
            60.18701076507569,
            56.443671947160446
          ],
          [
            60.185143947601325,
            56.441133636610466
          ],
          [
            60.18359899520875,
            56.43879681768992
          ],
          [
            60.18204331398011,
            56.43676829494059
          ],
          [
            60.17460823059083,
            56.439431450236434
          ],
          [
            60.17355680465699,
            56.43978731431742
          ],
          [
            60.17112135887147,
            56.44051682526774
          ],
          [
            60.17083168029786,
            56.44054647988827
          ],
          [
            60.162194967269905,
            56.44351775556149
          ],
          [
            60.154974460601814,
            56.44594916561961
          ]
        ]
      }
    }
  ]
}