{
  "type": "FeatureCollection",
  "features": [
    {
      "properties": {
        "name": "Path",
        "stroke": "#DC143C"
      },
      "geometry": {
        "type": "LineString",
        "coordinates": [
          [
            60.173122447075606,
            56.44179072961243
          ],
          [
            60.17261014515377,
            56.4419582722989
          ],
          [
            60.173055391850234,
            56.44238676306633
          ],
          [
            60.17443925142289,
            56.44371494278325
          ],
          [
            60.175525546073914,
            56.44475423596955
          ],
          [
            60.176941752433784,
            56.44611224243467
          ],
          [
            60.17776787281037,
            56.44690982623042
          ],
          [
            60.17260730266572,
            56.448573134858655
          ],
          [
            60.164930820465095,
            56.4510842668043
          ],
          [
            60.15803217887879,
            56.44491731791247
          ],
          [
            60.17092019319535,
            56.440507928877075
          ],
          [
            60.17123132944108,
            56.44047530876013
          ],
          [
            60.173674821853645,
            56.439710210715944
          ],
          [
            60.17617195844651,
            56.43888430271264
          ],
          [
            60.17960786819459,
            56.437663942600125
          ],
          [
            60.17897486686707,
            56.43652510219817
          ],
          [
            60.17896682024003,
            56.43639757367482
          ],
          [
            60.179009735584266,
            56.43627745920926
          ],
          [
            60.17909556627274,
            56.43618403658478
          ],
          [
            60.17924576997758,
            56.436103959866756
          ],
          [
            60.180916786193855,
            56.43565612029728
          ],
          [
            60.18113404512406,
            56.435651671533364
          ],
          [
            60.181370079517365,
            56.43566798366515
          ],
          [
            60.18156051635743,
            56.43566946658589
          ],
          [
            60.18167585134507,
            56.43563684231657
          ],
          [
            60.18410861492158,
            56.434793050352376
          ],
          [
            60.18428564071656,
            56.43446531591063
          ],
          [
            60.184529721736915,
            56.43281028797115
          ],
          [
            60.18449217081071,
            56.43249291775044
          ],
          [
            60.18437951803208,
            56.432264528195425
          ],
          [
            60.18374919891358,
            56.43134947316666
          ],
          [
            60.18261462450028,
            56.430102174686546
          ],
          [
            60.181195735931404,
            56.427899651180596
          ],
          [
            60.18055200576783,
            56.427015639540365
          ],
          [
            60.17983317375184,
            56.426428264738306
          ],
          [
            60.17872273921967,
            56.42498648812379
          ],
          [
            60.178497433662415,
            56.42457411809333
          ],
          [
            60.17848134040833,
            56.42415581011289
          ],
          [
            60.17907679080964,
            56.423144138460806
          ],
          [
            60.178926587104804,
            56.42290679224054
          ],
          [
            60.178497433662415,
            56.42268427881389
          ],
          [
            60.17777860164643,
            56.42248253218185
          ],
          [
            60.177161693573005,
            56.42246473095706
          ],
          [
            60.174447298049934,
            56.42293942743367
          ],
          [
            60.17229616641999,
            56.42327764505884
          ],
          [
            60.1701906323433,
            56.423606959330236
          ],
          [
            60.16922771930695,
            56.423730080600315
          ],
          [
            60.16825675964356,
            56.42381611691391
          ],
          [
            60.165770351886756,
            56.42396297155126
          ],
          [
            60.163538753986366,
            56.42404900733803
          ],
          [
            60.16304254531861,
            56.421843166300555
          ],
          [
            60.162932574749,
            56.421807563244144
          ],
          [
            60.16252756118775,
            56.421816464011386
          ],
          [
            60.16251951456071,
            56.42165031601311
          ],
          [
            60.16274213790894,
            56.42164883254556
          ],
          [
            60.16276359558106,
            56.42177047669164
          ],
          [
            60.162945985794074,
            56.421767509765864
          ],
          [
            60.163112282753,
            56.42182388131581
          ],
          [
            60.163203477859504,
            56.422227380497034
          ],
          [
            60.16335904598237,
            56.42296761235062
          ],
          [
            60.163522660732276,
            56.42365591120823
          ],
          [
            60.16360044479371,
            56.42401637309698
          ],
          [
            60.165770351886756,
            56.42392440372162
          ],
          [
            60.16825407743455,
            56.423779032319835
          ],
          [
            60.16921967267991,
            56.42369002914656
          ],
          [
            60.17016917467118,
            56.42356690774685
          ],
          [
            60.17229348421097,
            56.423227209287994
          ],
          [
            60.17445802688599,
            56.42289047463349
          ],
          [
            60.177183151245124,
            56.42240984379483
          ],
          [
            60.17782151699067,
            56.42242616160808
          ],
          [
            60.17854034900666,
            56.42263680911438
          ],
          [
            60.179012417793274,
            56.422891958052595
          ],
          [
            60.179162621498115,
            56.423145621870034
          ],
          [
            60.178575217723846,
            56.42416471033061
          ],
          [
            60.17857789993287,
            56.424562251263694
          ],
          [
            60.178816616535194,
            56.42496423805641
          ],
          [
            60.17992705106736,
            56.42641046536027
          ],
          [
            60.18064588308335,
            56.426993390660144
          ],
          [
            60.181294977664955,
            56.42788333571564
          ],
          [
            60.1826897263527,
            56.43009624213463
          ],
          [
            60.18382698297501,
            56.43134799007745
          ],
          [
            60.1844546198845,
            56.4322823248334
          ],
          [
            60.184561908245094,
            56.4325166464567
          ],
          [
            60.18460214138031,
            56.43283698254183
          ],
          [
            60.18433392047883,
            56.43449645821887
          ],
          [
            60.184135437011726,
            56.43483012420638
          ],
          [
            60.1815739274025,
            56.43571543709964
          ],
          [
            60.18147736787797,
            56.43577771964255
          ],
          [
            60.18140226602555,
            56.4358919040395
          ],
          [
            60.1814478635788,
            56.4359616008405
          ],
          [
            60.18210500478745,
            56.43679350385537
          ],
          [
            60.17952740192414,
            56.4377366018325
          ],
          [
            60.17760157585145,
            56.43842611620682
          ],
          [
            60.17556309700013,
            56.43914082543211
          ],
          [
            60.173647999763496,
            56.43977396947454
          ],
          [
            60.171263515949256,
            56.44050941160899
          ],
          [
            60.170955061912544,
            56.44054351442725
          ],
          [
            60.16821116209031,
            56.44148058859192
          ],
          [
            60.16548067331315,
            56.442414674338586
          ],
          [
            60.16276359558106,
            56.44333984140073
          ],
          [
            60.16099601984025,
            56.44396995030475
          ],
          [
            60.15968173742295,
            56.444413244191
          ],
          [
            60.1581421494484,
            56.44493955630503
          ],
          [
            60.15940010547639,
            56.446088522214154
          ],
          [
            60.16049176454545,
            56.44704028444039
          ],
          [
            60.16126424074174,
            56.44775927903848
          ],
          [
            60.16221374273301,
            56.44861019527339
          ],
          [
            60.164941549301155,
            56.45102497398437
          ],
          [
            60.17263958958554,
            56.44851420085053
          ],
          [
            60.177660584449775,
            56.44688462402459
          ],
          [
            60.17513126134873,
            56.44445772155304
          ],
          [
            60.17381429672242,
            56.44319306159109
          ],
          [
            60.17298817634583,
            56.44239391712696
          ],
          [
            60.17405569553376,
            56.442017320033024
          ],
          [
            60.173647999763496,
            56.44162589232697
          ],
          [
            60.17307937145233,
            56.441806779873986
          ]
        ]
      },
      "type": "Feature"
    }
  ]
}